EUTELSAT 115 WEST B     
1 40425U 15010B   22079.80137344 -.00000025  00000+0  00000+0 0  9998
2 40425   0.0290 336.5295 0000045 306.8161  68.5284  1.00272084 25863
MMS 1                   
1 40482U 15011A   22067.12500000 -.00002004  00000+0  00000+0 0  9996
2 40482  33.0277 109.4574 8570985  46.2931 172.1023  0.28450470 13010
MMS 2                   
1 40483U 15011B   22067.12500000 -.00002004  00000+0  00000+0 0  9997
2 40483  33.0259 109.4605 8570419  46.2990 172.0703  0.28450433 13072
MMS 3                   
1 40484U 15011C   22067.12500000 -.00002003  00000+0  00000+0 0  9997
2 40484  33.0310 109.4378 8569805  46.3068 172.0762  0.28449431 12757
MMS 4                   
1 40485U 15011D   22067.12500000 -.00002003  00000+0  00000+0 0  9998
2 40485  33.0281 109.4599 8569571  46.2911 172.0937  0.28450434 12968
EXPRESS-AM7             
1 40505U 15012A   22079.82023890  .00000150  00000+0  00000+0 0  9999
2 40505   0.0162 120.7956 0003132 227.7093 165.0789  1.00273141 25477
NAVSTAR 73 (USA 260)    
1 40534U 15013A   22079.47467226  .00000030  00000+0  00000+0 0  9995
2 40534  53.7617 268.3787 0068457  20.1630 340.1011  2.00557890 50742
KOMPSAT-3A              
1 40536U 15014A   22080.19838633  .00002350  00000+0  13947-3 0  9998
2 40536  97.5656  23.7850 0002811  60.0928  50.3735 15.12318556385703
GSAT0203 (GALILEO 7)    
1 40544U 15017A   22078.87134702 -.00000069  00000+0  00000+0 0  9996
2 40544  56.7602  23.8170 0003926 285.3307  74.6115  1.70475597 42773
GSAT0204 (GALILEO 8)    
1 40545U 15017B   22079.12398908 -.00000069  00000+0  00000+0 0  9996
2 40545  56.7659  23.8221 0003121 275.0116  84.9389  1.70475407  5826
IRNSS-1D                
1 40547U 15018A   22078.82628049 -.00000284  00000+0  00000+0 0  9996
2 40547  28.7551 266.6345 0020984 178.5268 141.3250  1.00277070 25447
BEIDOU 17               
1 40549U 15019A   22079.90617969 -.00000149  00000+0  00000+0 0  9998
2 40549  52.0360 313.7834 0035333 188.9930  96.4333  1.00261300 25541
GONETS-M 11             
1 40552U 15020A   22079.83561149  .00000049  00000+0  28329-3 0  9990
2 40552  82.4822 276.3150 0016812 140.3261 219.9052 12.42887815316300
GONETS-M 12             
1 40553U 15020B   22079.80990446  .00000051  00000+0  29743-3 0  9998
2 40553  82.4848 277.0162 0015368 124.7971 235.4556 12.42881229316292
GONETS-M 13             
1 40554U 15020C   22079.86100911  .00000044  00000+0  24565-3 0  9994
2 40554  82.4811 276.0943 0013960 109.6415 250.6172 12.42897374316314
COSMOS 2504             
1 40555U 15020D   22079.87440087  .00000152  00000+0  48614-4 0  9999
2 40555  82.5217 346.7432 0615994 158.9698 203.8023 13.59512662339547
THOR 7                  
1 40613U 15022A   22079.81212762 -.00000009  00000+0  00000+0 0  9991
2 40613   0.0132 188.7234 0002618 174.4266 106.8628  1.00270695 25279
TURKMENALEM52E/MONACOSAT
1 40617U 15023A   22079.77271726  .00000104  00000+0  00000+0 0  9991
2 40617   0.0299 112.6560 0002348 252.4612 143.3405  1.00272809 25309
DIRECTV 15              
1 40663U 15026A   22079.62760535 -.00000102  00000+0  00000+0 0  9999
2 40663   0.0180 191.0165 0000977 240.5945 229.5950  1.00271326 24926
SKY MEXICO-1            
1 40664U 15026B   22079.79651558 -.00000234  00000+0  00000+0 0  9998
2 40664   0.0175 160.8221 0002633 223.1220   2.3326  1.00269397 24910
SENTINEL-2A             
1 40697U 15028A   22080.08167850  .00000073  00000+0  44603-4 0  9999
2 40697  98.5667 156.1060 0001285  93.2376 266.8955 14.30820022352210
COSMOS 2506             
1 40699U 15029A   22080.09720253 -.00000053  00000+0 -19523-5 0  9999
2 40699  98.2683 139.2367 0007629 271.6792  88.3548 14.53438820357802
GAOFEN 8                
1 40701U 15030A   22080.17427376  .00005787  00000+0  24518-3 0  9999
2 40701  97.5455 214.1543 0005453  59.3834  65.7560 15.23540895374946
DMC3-FM1                
1 40715U 15032A   22080.22528987  .00000149  00000+0  25372-4 0  9999
2 40715  97.8595 328.7176 0007808  88.4034 271.8067 14.81954176360226
DMC3-FM2                
1 40716U 15032B   22080.26877992  .00000215  00000+0  33617-4 0  9992
2 40716  97.8636 329.3581 0009577  90.1045  22.4569 14.82025030360234
DMC3-FM3                
1 40717U 15032C   22080.20192824  .00000321  00000+0  47092-4 0  9991
2 40717  97.8675 330.1708 0011294  86.2172 274.0335 14.81976828360229
CARBONITE 1 (CBNT-1)    
1 40718U 15032D   22080.15550929  .00000785  00000+0  12323-3 0  9992
2 40718  97.7515 308.2861 0015594 304.6390  55.3333 14.75199154360404
NAVSTAR 74 (USA 262)    
1 40730U 15033A   22079.63818619 -.00000049  00000+0  00000+0 0  9990
2 40730  55.2549 330.2541 0073634   5.7855 354.3542  2.00556505 48913
METEOSAT-11 (MSG-4)     
1 40732U 15034A   22079.81238927 -.00000001  00000+0  00000+0 0  9999
2 40732   0.1874   5.7892 0000435  43.8925  61.7457  1.00261453 24493
STAR ONE C4             
1 40733U 15034B   22079.79825994 -.00000265  00000+0  00000+0 0  9995
2 40733   0.0342  21.7462 0003181 349.8081  24.0986  1.00273089 24483
WGS F7 (USA 263)        
1 40746U 15036A   22080.13421480  .00000017  00000+0  00000+0 0  9997
2 40746   0.0024 187.4909 0000861 178.4469  35.9944  1.00271971 24335
BEIDOU 18               
1 40748U 15037A   22079.80076395 -.00000077  00000+0  00000+0 0  9990
2 40748  55.8903 354.7388 0005544   3.8169 122.8647  1.86233308 45269
BEIDOU 19               
1 40749U 15037B   22080.09467866 -.00000078  00000+0  00000+0 0  9992
2 40749  55.8934 354.7183 0006811 330.9758 127.6500  1.86232221 45267
INTELSAT 34 (IS-34)     
1 40874U 15039A   22079.80122536 -.00000285  00000+0  00000+0 0  9992
2 40874   0.0398 315.4989 0000368 240.7835 214.9569  1.00274079 24080
EUTELSAT 8 WEST B       
1 40875U 15039B   22079.81064491 -.00000065  00000+0  00000+0 0  9995
2 40875   0.0703  20.7912 0005159   2.7665  78.5772  1.00271995 24122
YAOGAN-27               
1 40878U 15040A   22080.12077212 -.00000020  00000+0  58662-4 0  9994
2 40878 100.1421 115.6338 0008563 182.6617 177.4465 13.15976656315415
GSAT-6                  
1 40880U 15041A   22079.81315694 -.00000161  00000+0  00000+0 0  9995
2 40880   0.0561 278.0437 0000872 112.5185 163.0296  1.00272395 24074
INMARSAT 5-F3           
1 40882U 15042A   22079.43813236  .00000050  00000+0  00000+0 0  9997
2 40882   0.0192 159.1258 0000243 295.5517  60.5880  1.00270783 24023
MUOS-4                  
1 40887U 15044A   22079.82721634 -.00000092  00000+0  00000+0 0  9994
2 40887   2.5558   4.2679 0058496 359.2971 187.5915  1.00271651 24027
GSAT0205 (GALILEO 9)    
1 40889U 15045A   22078.30452971  .00000039  00000+0  00000+0 0  9994
2 40889  55.6847 264.4501 0005972  29.2971 330.7220  1.70473394 40572
GSAT0206 (GALILEO 10)   
1 40890U 15045B   22079.11189079  .00000037  00000+0  00000+0 0  9990
2 40890  55.6830 264.4237 0004114  26.9335 333.0697  1.70473403 40617
TJS-1                   
1 40892U 15046A   22080.22047446 -.00000156  00000+0  00000+0 0  9991
2 40892   0.0447  74.0074 0006249 315.8906  23.1651  1.00272737 24020
GAOFEN 9-01             
1 40894U 15047A   22080.15027599  .00000451  00000+0  71516-4 0  9995
2 40894  97.8254 153.2724 0034123 134.5312 225.8696 14.76375974351154
EXPRESS-AM8             
1 40895U 15048A   22079.88120796 -.00000111  00000+0  00000+0 0  9997
2 40895   0.0247 298.7019 0000610 176.3870   6.5145  1.00271868 23847
2015-049A               
1 40899U 15049A   22080.11624505  .00004063  00000+0  20035-3 0  9990
2 40899  97.4818  85.2304 0013248 321.0864 107.1856 15.18421340359715
NUDT-PHONESAT           
1 40900U 15049B   22080.10108744  .00015399  00000+0  51306-3 0  9993
2 40900  97.4083  97.8911 0008637 232.3757 200.4611 15.31165835361073
ZDPS 2A                 
1 40901U 15049C   22080.07854010  .00007879  00000+0  34886-3 0  9992
2 40901  97.4628  89.4364 0010353 300.4855 146.9923 15.21874451360004
ZDPS 2B                 
1 40902U 15049D   22080.11274231  .00008184  00000+0  36105-3 0  9995
2 40902  97.4700  87.0276 0010361 296.7925 149.1009 15.21989293359982
XW-2A                   
1 40903U 15049E   22080.16704159  .00013428  00000+0  24403-3 0  9993
2 40903  97.1949 138.7543 0012615  84.6209 351.2328 15.49574936365575
KAITUO 1A               
1 40904U 15049F   22080.20519970  .00003113  00000+0  16020-3 0  9990
2 40904  97.4951  83.6146 0013018 324.3612  98.1003 15.17113090359484
2015-049G               
1 40905U 15049G   22080.20243262  .00002649  00000+0  14192-3 0  9990
2 40905  97.5131  80.7584 0014182 325.2738  95.6924 15.15807984359240
XW-2C                   
1 40906U 15049H   22080.16191422  .00004038  00000+0  20167-3 0  9999
2 40906  97.4943  84.3469 0012807 311.8560 110.4080 15.17988116359528
XW-2D                   
1 40907U 15049J   22080.15289836  .00004575  00000+0  22491-3 0  9994
2 40907  97.4927  84.2536 0011944 307.4414 117.4473 15.18479106359567
LILACSAT-2              
1 40908U 15049K   22080.14180831  .00002350  00000+0  12858-3 0  9994
2 40908  97.5162  81.6435 0014472 328.7210  95.4853 15.15167128359111
XW-2E                   
1 40909U 15049L   22080.20458657  .00006801  00000+0  30370-3 0  9990
2 40909  97.4679  88.6693 0010467 286.4851 139.7063 15.21637400359980
XW-2F                   
1 40910U 15049M   22080.10345598  .00006661  00000+0  30188-3 0  9991
2 40910  97.4754  87.6822 0011649 286.6009 146.6441 15.21124158359741
XW-2B                   
1 40911U 15049N   22080.10739125  .00004669  00000+0  23009-3 0  9995
2 40911  97.4922  84.8364 0011780 308.9895 123.5075 15.18381306359446
KAITUO 1B               
1 40912U 15049P   22080.14547858  .00007374  00000+0  30737-3 0  9992
2 40912  97.4418  92.0885 0011503 249.0024 176.0587 15.23939650360291
COSMOS 2507             
1 40920U 15050A   22079.83958575  .00000026  00000+0  11492-3 0  9993
2 40920  82.4960 324.2048 0009507 120.4459 239.7557 12.42886208294414
